<<<<<<< HEAD
HORYU-4                 
1 41340U 16012D   19243.77208492  .00000445  00000-0  27062-4 0  9994
2 41340  31.0059  22.6663 0013757 144.3887 215.7669 15.01296891194153
SES-9                   
1 41380U 16013A   19244.49415810 -.00000369  00000-0  00000+0 0  9997
2 41380   0.0490 282.8423 0001659 196.7037 147.0145  1.00271460 12875
EUTELSAT 65 WEST A      
1 41382U 16014A   19243.81349611 -.00000299  00000-0  00000-0 0  9993
2 41382   0.0535  15.2638 0001702 134.6036  57.4932  1.00270730 12666
IRNSS-1F                
1 41384U 16015A   19244.27132804  .00000134  00000-0  00000+0 0  9997
2 41384   2.5951 236.3162 0019183 190.9536  42.9920  1.00275311 12810
RESURS P3               
1 41386U 16016A   19244.47312560  .00000276  00000-0  11027-4 0  9994
2 41386  97.2563 333.4740 0005989  94.1062 322.1528 15.32998762194002
COSMOS 2515             
1 41394U 16020A   19244.55361331 -.00000431  00000-0 -30223-4 0  9991
2 41394  97.7466 183.0595 0034523  11.0059 349.1909 14.98796348188153
BEIDOU IGSO-6           
1 41434U 16021A   19244.26813316 -.00000136  00000-0  00000+0 0  9996
2 41434  56.6335  63.6248 0035560 198.5159 270.9000  1.00276026 12614
SENTINEL-1B             
1 41456U 16025A   19244.34986403 -.00000081  00000-0 -75170-5 0  9997
2 41456  98.1820 250.3118 0001283  83.8148 276.3192 14.59197594178422
MICROSCOPE              
1 41457U 16025B   19244.11452433  .00000075  00000-0  28293-4 0  9998
2 41457  98.2416 247.9944 0000907  58.5109 301.6176 14.54069125177732
E-ST@R-II               
1 41459U 16025D   19244.31105398  .00001405  00000-0  74906-4 0  9997
2 41459  98.1033 334.5729 0169051 107.6887 254.2880 15.05596447183772
AAUSAT 4                
1 41460U 16025E   19244.32546803  .00002598  00000-0  13224-3 0  9999
2 41460  98.0968 336.0155 0158195  99.5167 262.3962 15.07536928183914
DIWATA-1                
1 41463U 98067HT  19244.44508963  .00023535  00000-0  10414-3 0  9998
2 41463  51.6277 217.8971 0002705  83.7744  59.2743 15.84320562191614
MVL-300                 
1 41464U 16026A   19244.45947917  .00000239  00000-0  10331-4 0  9996
2 41464  97.1791 135.1102 0010630 220.7048 129.3037 15.31249802186770
AIST-2D (RS-48)         
1 41465U 16026B   19244.54104228  .00000867  00000-0  28721-4 0  9996
2 41465  97.1807 137.8701 0010198 207.0635 249.4968 15.33905102186975
IRNSS-1G                
1 41469U 16027A   19244.49843266 -.00000361  00000-0  00000+0 0  9992
2 41469   2.6370 238.7717 0005801 228.6779 181.8811  1.00269593 12314
JCSAT 2B                
1 41471U 16028A   19244.14434215 -.00000189  00000-0  00000+0 0  9996
2 41471   0.0196 132.5116 0001811  25.5353  27.9376  1.00270257 12212
YAOGAN 30               
1 41473U 16029A   19244.35778504  .00000015  00000-0  95319-5 0  9994
2 41473  97.9057 298.7092 0015669 319.2612  40.7425 14.76316526177644
GSAT0211 (GALILEO 14)   
1 41549U 16030A   19241.78532995  .00000014  00000-0  00000-0 0  9993
2 41549  56.5263 289.9731 0003729 271.3503  88.6980  1.70474909 20331
GSAT0210 (GALILEO 13)   
1 41550U 16030B   19242.66494578  .00000009  00000-0  00000-0 0  9991
2 41550  56.5252 289.9506 0004423 246.5406 113.5008  1.70474888 20345
THAICOM 8               
1 41552U 16031A   19243.84219672 -.00000145  00000-0  00000-0 0  9997
2 41552   0.0811  58.7703 0001780  31.6566 271.0057  1.00271571 11831
COSMOS 2516 [GLONASS-M] 
1 41554U 16032A   19244.39285757  .00000026  00000-0  00000+0 0  9994
2 41554  64.2322 277.0032 0014915 220.6471  98.7237  2.13101806 25356
ZIYUAN 3-2 (ZY 3-2)     
1 41556U 16033A   19244.50994308  .00000416  00000-0  21624-4 0  9992
2 41556  97.3940 320.4203 0001444 349.6811  68.2932 15.21330275180833
NUSAT-1 (FRESCO)        
1 41557U 16033B   19244.53879685  .00001352  00000-0  53154-4 0  9999
2 41557  97.4168 331.6045 0014758  39.3211 320.9097 15.27334013181510
NUSAT-2 (BATATA)        
1 41558U 16033C   19244.47998197  .00001303  00000-0  48508-4 0  9996
2 41558  97.4197 332.8356 0013816  40.0649 320.1607 15.29243108181569
COSMOS 2517 (GEO-IK 2)  
1 41579U 16034A   19244.56458605 -.00000259  00000-0 -18659-3 0  9999
2 41579  99.2573 255.6556 0001212  64.7301 295.3979 13.85896982164020
INTELSAT 31 (IS-31)     
1 41581U 16035A   19243.87935924 -.00000174  00000-0  00000-0 0  9993
2 41581   0.0382 257.2647 0000875 346.7632 317.2380  1.00272414 11768
BEIDOU-2 G7             
1 41586U 16037A   19244.49459428 -.00000376  00000-0  00000+0 0  9992
2 41586   0.9837  48.0214 0005402  10.6596 210.1166  1.00264286 11907
ABS-2A (MONGOLSAT-1)    
1 41588U 16038A   19244.48752818 -.00000108  00000-0  00000+0 0  9996
2 41588   0.0105 121.9327 0002415 308.0989 160.5405  1.00271024 11828
EUTELSAT 117 WEST B     
1 41589U 16038B   19244.53036021 -.00000036  00000-0  00000+0 0  9994
2 41589   0.0150 284.1008 0000214 234.1481 256.0759  1.00272912 11839
BRISAT                  
1 41591U 16039A   19243.93174420 -.00000220  00000-0  00000+0 0  9992
2 41591   0.0176 155.7804 0001934   2.6679 307.2828  1.00269277 11762
ECHOSTAR 18             
1 41592U 16039B   19243.81428124 -.00000305  00000-0  00000+0 0  9997
2 41592   0.0086 153.0178 0001273   6.2020  52.2549  1.00270905 11749
CARTOSAT-2C             
1 41599U 16040A   19244.24033597  .00000152  00000-0  10487-4 0  9994
2 41599  97.4931 301.9361 0014915 136.6842 309.6248 15.19227069177038
SKYSAT-C1               
1 41601U 16040C   19244.49125179  .00000336  00000-0  16887-4 0  9997
2 41601  97.3899 322.1294 0001979 120.4106 297.0234 15.23724498177458
GHGSAT-D                
1 41602U 16040D   19244.39683697  .00000773  00000-0  36197-4 0  9992
2 41602  97.3536 304.4116 0010507 126.3350 233.8858 15.22623265177332
LAPAN-A3                
1 41603U 16040E   19244.43747894 -.00000025  00000-0  19842-5 0  9998
2 41603  97.3549 301.2816 0014605 133.4264 283.4967 15.19734465177091
BIROS                   
1 41604U 16040F   19243.83659652  .00000428  00000-0  21857-4 0  9990
2 41604  97.3582 303.5092 0013878 121.8572 238.4017 15.21766122177177
M3MSAT                  
1 41605U 16040G   19244.17531755  .00000484  00000-0  24764-4 0  9994
2 41605  97.3578 302.9263 0013473 131.8869 228.3518 15.21114628177168
FLOCK 2P-6              
1 41606U 16040H   19244.14652835  .00001739  00000-0  71053-4 0  9992
2 41606  97.3644 307.8660 0011820 115.7158 244.5302 15.25657040177484
SWAYAM                  
1 41607U 16040J   19244.15434876  .00001464  00000-0  64262-4 0  9996
2 41607  97.3595 304.7950 0014847 125.6075 234.6548 15.23431404177213
FLOCK 2P-11             
1 41608U 16040K   19243.72995535  .00003295  00000-0  12789-3 0  9993
2 41608  97.3618 307.6801 0011457 115.3747 244.8679 15.26740629177384
FLOCK 2P-2              
1 41609U 16040L   19243.85943809  .00002386  00000-0  96579-4 0  9995
2 41609  97.3643 307.4905 0011721 116.6434 243.6006 15.25608351177359
FLOCK 2P-9              
1 41610U 16040M   19244.53006763  .00001783  00000-0  72967-4 0  9997
2 41610  97.3642 308.0812 0012257 114.1377 246.1145 15.25573132177336
FLOCK 2P-4              
1 41611U 16040N   19244.30523459  .00001877  00000-0  74969-4 0  9997
2 41611  97.3664 308.6131 0011624 122.2966 237.9400 15.26334421177487
FLOCK 2P-10             
1 41612U 16040P   19243.85858793  .00001969  00000-0  80155-4 0  9995
2 41612  97.3680 308.1021 0011769 125.0404 235.1940 15.25630103177403
FLOCK 2P-8              
1 41613U 16040Q   19243.83438814  .00001424  00000-0  58888-4 0  9996
2 41613  97.3674 307.9179 0012050 124.3539 235.8841 15.25554384177394
FLOCK 2P-12             
1 41614U 16040R   19243.85909163  .00001782  00000-0  72936-4 0  9996
2 41614  97.3686 308.1953 0011763 124.8415 235.3931 15.25559939177407
FLOCK 2P-7              
1 41615U 16040S   19244.29713940  .00003869  00000-0  15035-3 0  9996
2 41615  97.3637 308.5411 0011293 122.7420 237.4909 15.26597366177481
FLOCK 2P-5              
1 41616U 16040T   19243.87081997  .00002402  00000-0  97265-4 0  9998
2 41616  97.3685 308.1794 0011614 124.2747 235.9593 15.25589986177380
FLOCK 2P-1              
1 41617U 16040U   19244.13693842  .00003374  00000-0  13271-3 0  9990
2 41617  97.3667 308.5768 0011415 123.1702 237.0633 15.26280562177459
FLOCK 2P-3              
1 41618U 16040V   19244.14617378  .00001170  00000-0  48868-4 0  9995
2 41618  97.3687 308.4310 0011611 123.4965 236.7385 15.25569557177448
BEESAT-4                
1 41619U 16040W   19243.81507880  .00001328  00000-0  58909-4 0  9997
2 41619  97.3616 304.6387 0012866 119.2151 241.0375 15.23252227165149
MUOS-5                  
1 41622U 16041A   19243.71785598 -.00000163  00000-0  00000-0 0  9997
2 41622   7.8538 310.2543 0207576 210.7041 332.0765  1.00270719 12206
SJ 16-02                
1 41634U 16043A   19244.43916288  .00000072  00000-0  11520-4 0  9995
2 41634  75.0025 254.8747 0009049 271.3478  88.6672 14.85600750172171
TIANTONG-1 1            
1 41725U 16048A   19243.69910410 -.00000339  00000-0  00000+0 0  9992
2 41725   3.4064 329.7464 0001592 274.6620  88.2309  1.00268481 11380
GAOFEN 3                
1 41727U 16049A   19244.40286191 -.00000029  00000-0  45400-5 0  9992
2 41727  98.4138 251.0484 0001696  98.6082 261.5303 14.42214173161068
JCSAT-16                
1 41729U 16050A   19243.86369043 -.00000380  00000-0  00000-0 0  9995
2 41729   0.0388  97.8268 0003022 137.0020 179.8640  1.00272360 11170
QSS (MOZI)              
1 41731U 16051A   19244.56767654  .00000193  00000-0  10592-4 0  9999
2 41731  97.3567 157.4662 0012084 314.5343 169.5781 15.24936178169384
INTELSAT 36 (IS-36)     
1 41747U 16053A   19244.12733115 -.00000048  00000-0  00000+0 0  9993
2 41747   0.0182 121.5138 0002676 245.3380  87.4841  1.00269265 11086
INTELSAT 33E (IS-33E)   
1 41748U 16053B   19244.13273580  .00000025  00000-0  00000+0 0  9994
2 41748   0.0193  85.5372 0001832  76.0127 286.2439  1.00273264 11344
INSAT-3DR               
1 41752U 16054A   19244.48735372 -.00000100  00000-0  00000+0 0  9995
2 41752   0.0218 107.9971 0011198 159.4864 322.2905  1.00270456 10923
>>>>>>> c99c011d7f8f687abba331e535e9676aae21aae0
